SPACEMOBILE-006         
1 67232U 25309A   26139.87223010  .00000779  00000+0  52909-4 0  9994
2 67232  52.9953 101.3051 0011975  49.7155 310.4883 15.18359733 22297
